{"type":"FeatureCollection","features":[{"type":"Feature","properties":{"code":"97501","nom":"Miquelon-Langlade","departement":"975","region":"975"},"geometry":{"type":"Polygon","coordinates":[[[-56.349,46.783],[-56.373,46.799],[-56.37,46.824],[-56.405,46.834],[-56.378,46.859],[-56.348,46.868],[-56.331,46.897],[-56.329,46.935],[-56.359,47.005],[-56.383,47.021],[-56.389,47.097],[-56.331,47.091],[-56.298,47.072],[-56.253,47.058],[-56.25,47.038],[-56.271,46.999],[-56.289,46.988],[-56.358,47.005],[-56.32,46.954],[-56.322,46.91],[-56.29,46.89],[-56.27,46.895],[-56.238,46.865],[-56.244,46.843],[-56.349,46.783]]]}},{"type":"Feature","properties":{"code":"97502","nom":"Saint-Pierre","departement":"975","region":"975"},"geometry":{"type":"Polygon","coordinates":[[[-56.208,46.797],[-56.165,46.815],[-56.17,46.786],[-56.155,46.762],[-56.192,46.758],[-56.234,46.766],[-56.208,46.797]]]}}]}